{
  "type": "FeatureCollection",
  "features": [
    {
      "type": "Feature",
      "geometry": {
        "type": "MultiPolygon",
        "coordinates": [
          [
            [
              [
                -98.0859575043859,
                29.7496137120471
              ],
              [
                -98.0864610760395,
                29.7498296849062
              ],
              [
                -98.0864620392554,
                29.7498300976533
              ],
              [
                -98.0865027187706,
                29.7498475446725
              ],
              [
                -98.0865034996439,
                29.7498478794532
              ],
              [
                -98.0860610652535,
                29.750674798741
              ],
              [
                -98.0853604670707,
                29.7500701916966
              ],
              [
                -98.0858969850277,
                29.7495877567918
              ],
              [
                -98.0859575043859,
                29.7496137120471
              ]
            ]
          ],
          [
            [
              [
                -98.0880781905294,
                29.747764722277
              ],
              [
                -98.0906303145769,
                29.7499487758235
              ],
              [
                -98.0906554732215,
                29.7499703058194
              ],
              [
                -98.0909860440251,
                29.7502491058339
              ],
              [
                -98.0929117657378,
                29.7518731858029
              ],
              [
                -98.0929133489166,
                29.751874584606
              ],
              [
                -98.0918483289711,
                29.7526985820223
              ],
              [
                -98.0909609224718,
                29.7533894443276
              ],
              [
                -98.090037306198,
                29.7541060352476
              ],
              [
                -98.0897381338702,
                29.75433814506
              ],
              [
                -98.0881769242279,
                29.7555515455
              ],
              [
                -98.0873305784852,
                29.7562088637935
              ],
              [
                -98.0872560489057,
                29.7561436684001
              ],
              [
                -98.086528555846,
                29.7554945352117
              ],
              [
                -98.0847320115388,
                29.7539097020645
              ],
              [
                -98.0846939092442,
                29.7538762973989
              ],
              [
                -98.0848548767417,
                29.7536230963243
              ],
              [
                -98.0850105874032,
                29.7533674040503
              ],
              [
                -98.0851609908551,
                29.7531093041738
              ],
              [
                -98.0853060387853,
                29.7528488812081
              ],
              [
                -98.0854456828836,
                29.752586219666
              ],
              [
                -98.0863461955196,
                29.7509208581903
              ],
              [
                -98.0863853436603,
                29.7508484589057
              ],
              [
                -98.0874313364874,
                29.748912318387
              ],
              [
                -98.0880593523779,
                29.7477486012538
              ],
              [
                -98.0880781905294,
                29.747764722277
              ]
            ]
          ],
          [
            [
              [
                -98.0926305979568,
                29.7533927219129
              ],
              [
                -98.0931747886304,
                29.7536944351135
              ],
              [
                -98.0933726272765,
                29.7538041222802
              ],
              [
                -98.0933813817267,
                29.7538089751165
              ],
              [
                -98.0928632788252,
                29.7542649049389
              ],
              [
                -98.0916589856824,
                29.7553246570052
              ],
              [
                -98.0916518564609,
                29.7553183740226
              ],
              [
                -98.0912196684172,
                29.7549374437273
              ],
              [
                -98.0913345538794,
                29.754812166946
              ],
              [
                -98.0915386017673,
                29.7545789121225
              ],
              [
                -98.0917388620524,
                29.7543431718193
              ],
              [
                -98.0919352960586,
                29.7541049927149
              ],
              [
                -98.0921278640605,
                29.7538644232852
              ],
              [
                -98.0921302420296,
                29.7538614074149
              ],
              [
                -98.0921318426889,
                29.7538593770864
              ],
              [
                -98.092324358743,
                29.7536112680325
              ],
              [
                -98.0925127626447,
                29.7533607678891
              ],
              [
                -98.092528786571,
                29.7533390965772
              ],
              [
                -98.0925302649236,
                29.7533370942825
              ],
              [
                -98.0926305979568,
                29.7533927219129
              ]
            ]
          ]
        ]
      },
      "properties": {
        "owner": "NOLAND & VERA KOEPP LTD PRTNRSHP LTD",
        "owner_key": "NOLAND VERA KOEPP PRTNRSHP",
        "parcel_ids": [
          "79236",
          "79241"
        ],
        "parcel_count": 2,
        "combined_acres": 75.09,
        "nearest_intersection": "I-35 / Kohlenberg Rd (Mayfair)",
        "assemblage_score": 81.7,
        "underlying_parcels_remain_identifiable": true
      }
    },
    {
      "type": "Feature",
      "geometry": {
        "type": "Polygon",
        "coordinates": [
          [
            [
              -98.2195151682396,
              29.489855800204424
            ],
            [
              -98.22000642904264,
              29.489718657105787
            ],
            [
              -98.22220433894817,
              29.492992334541583
            ],
            [
              -98.22136177828841,
              29.493420065176217
            ],
            [
              -98.22054763925173,
              29.49383335776655
            ],
            [
              -98.21817488982151,
              29.490315977223716
            ],
            [
              -98.21874076106842,
              29.490122945710844
            ],
            [
              -98.21906297514819,
              29.490007722203412
            ],
            [
              -98.2195151682396,
              29.489855800204424
            ]
          ]
        ]
      },
      "properties": {
        "owner": "SMITH & SONS ENTERPRISES LLC",
        "owner_key": "SMITH SONS ENTERPRISES",
        "parcel_ids": [
          "340041",
          "340042"
        ],
        "parcel_count": 2,
        "combined_acres": 20.0,
        "nearest_intersection": "FM 1518 / I-10",
        "assemblage_score": 79.3,
        "underlying_parcels_remain_identifiable": true
      }
    }
  ]
}